name,address,lat,lng,scale,contact,web,description,source,tags
ZAD de NDDL,,47.3799,-1.7102,,,,ZAD (Zone à défendre) principale contre le projet d'aéroport de Notre Dame des landes.,resistance,
Can Masdeu,,41.4459,2.1565,,,,"Ancien hôpital de lépreux inoccupé pendant 53 ans et devenu un centre social occupé et autogéré depuis 2002. Le lieu est occupé par plus d'une vingtaine de personnes, peut héberger des visiteurs (attention, pour s'y rendre, mieux vaut les contacter plusieurs semaines voir même mois à l'avance, nombreux-seuses sont ceulles qui veulent s'y rendre). — Le lieu héberge aussi un potager communautaire. — Des visites hebdomadaires ont lieu le jeudi et le dimanche. — Des activités liées à l'écologie, l'activisme et l'autogestion sont organisées. —   — http://www.canmasdeu.net/?lang=en",resistance,
ZAD de Renne les Bains,,42.9192,2.3211,,,,Le collectif de la Sals vis dans des tipis et yourtes et protège la forêt contre une exploitation de Pins depuis plus de 2 ans. — Contact: Anna 06 63 95 33 22,resistance,
ZAD de Décines - A été détruite,,45.755,4.9669,,,,"Camp de résistance écologiste et autogéré contre le projet de stade de foot en projet depuis plus de 2 ans. — La ZAD a été détruite en grande partie le 3 septembre 2013, et plus aucun camp n'existe à ce jour. — Malgré les travaux actuels sur le chantier illégal du stade des Lumière, des militants restent actifs-ves contre le projet OL Land. — Une réunion du collectif Rhône NDDL a lieu chaque mercredi à partir de 19h30 au local de la Luttine (91, rue Montesquieu)",resistance,
Zad Patates de Montesson,,48.9396,2.1583,,,,https://zadpatate.wordpress.com/,resistance,
La goutte d'eau - Occupation,,43.5137,0.1648,,,,"Sorte de ZAD avant l'heure, sous forme d'une occupation d'une ancienne gare désaffectée pour lutter contre la construction du tunnel routier transpyrénéen du Somport dans les années 1990 puis 2000. Eric Pététin est la figure emblématique de cette lutte. — La lutte a recommencé en 2010, mais le tunnel est construit depuis longtemps maintenant.",resistance,
La vieille Valette - village punk,,43.9296,3.7354,,,,"Village-ferme punk au milieu des Cévennes. NB: Ne se trouve pas au point indiqué mais au nord d'Alès",resistance,up1708
ZAD d'Avignon (Léopard),,43.9296,4.7997,,,,"ZAD contre la construction de la liaison Est-Ouest (LEO), une quatre-voies qui fait la jonction entre les autoroutes A7, en direction de Marseille, et A9, vers Barcelone. Les zadistes résistent afin de préserver la ceinture verte de la ville où se développe une agriculture périurbaine. — Un collectif nommé La Horta s'est crée sur cette ZAD, et pratique le maraîchage. Ils cultivent plus de 15 légumes et 50 variétés différentes.",resistance,
ZEGG (Zentrum für experimentelle Gesellschaftsgestaltung),,52.1408,12.5924,,,,"Eco-village / communauté vivant en forêt noire dans un ancien camp de la Stasi, et basé sur les principes de l'amour libre. — Le lieu s'est fondé en 1991, fait 15 ha, et environ 100 personnes y vivent aujourd'hui. —   — http://www.zegg.de/fr/",resistance,
Communauté de Christiania,,55.6733,12.596,,,,"Quartier de Copenhague, autoproclamé ""ville libre de Cristiana"", fonctionnant comme une communauté intentionnelle autogéré, et fondée en septembre 1971.",resistance,
Occupation de la forêt d'Hambach,,50.8772,6.5467,,,,"Près de Cologne, en Allemagne, une très vieille et belle forêt risque d'être rasée par l'entreprise RWE. L'entreprise continue l'exploitation d'une immense mine de charbon de 10km/10km, exploitée depuis déjà 30 ans, et menaçant villages et forêts alentours.  — Il y a une occupation dans cette forêt, située juste à côté du village de Manheim (en passe d'être rasé) et cette occupation a déjà été expulsée 2 à 3 fois. Les occupants-es appellent à des actions de solidarité et la venue de soutien sur place. — http://hambachforest.blogsport.de/",resistance,
SOS Lac d'Aiguebelette,,45.556,5.8111,,,,,resistance,
Ferme de la Combe,,44.051,2.2979,,,,Projet d'écovillage. — Appeler Sylvain Renac de la part de Céline de Toulouse. — 06 70 29 64 10,resistance,
Un coin de liberté,,47.8243,-1.8414,,,,ecovillage.org,resistance,
Collectif créatif du Castellas,,44.2914,4.0945,,,,ecovillage.org,resistance,
Peace Factory,,43.3107,2.2147,,,,ecovillage.org,resistance,
Projet sans nom,,42.226,9.4187,,,,ecovillage.org,resistance,
Crow's manor,,46.6898,-0.7072,,,,ecovillage.org,resistance,
Ferme Auberge Bergbauernhof,,47.7832,6.9663,,,,ecovillage.org,resistance,
L'écojardin du Périgord,,45.4046,1.1908,,,,ecovillage.org,resistance,
Ecolieu de Vaux le Douce,,47.8609,5.7384,,,,ecovillage.org,resistance,
The Art Farm Group,,44.7039,4.5026,,,,ecovillage.org,resistance,
Ferme de la Chaux,,46.827,5.2619,,,,ecovillage.org http://www.goshen.fr/,resistance,
ecosite Poussaras,,44.3601,5.1377,,,,ecovillage.org,resistance,
ECOlonie - Centre Ecologique Intern,,48.0501,6.1054,,,,ecovillage.org,resistance,
Douceur et Harmonie - Domain Maman Terre,,42.4012,2.4788,,,,ecovillage.org,resistance,
Le Hameau des Buis,,44.4079,4.2222,,,,,resistance,
Les Amanins,,44.6709,4.9487,,,,"""LES AMANINS"" c’est  UN LIEU PRÉSERVÉ de 55 hectares comprenant champs, prés, landes, bois et rivière entre la Drôme provençale et la Drôme des collines (à 35 km au sud-est de Valence et à 24 km de Montélimar) organisé autour d’une ferme agro-écologique ;  UNE ÉCOLE DIFFÉRENTE où les enfants font directement le lien entre les savoirs et la vie concrète, où ils apprennent à cultiver leurs légumes, et à vivre ensemble dans la coopération ;  UN SITE D’EXPERIMENTATION et de démonstration agro-écologique et de sauvegarde de la biodiversité ;  UN espace agricole respectueux de l’environnement et garant d’une nourriture saine ;  UN centre de séjour, d’accueil et de transmission de savoirs et savoir-faire ;",resistance,
L'Elaboratoire,,48.1074,-1.6453,,,,,resistance,
Communauté Emmaüs Lescar-Pau,,43.343,-0.4157,,,,"Village autogéré depuis 30ans, cette communauté de 130 habitants récupère les surplus de consommation pour les revendre et valorisé de potentiels déchets. Plusieurs ateliers sont en place (recyclerie, déchetterie, ferme avec des animaux en voix d'extinction, très beau potagers, éco-habitats, cuisine...) Leur gestion est très rigoureuse et le résultat est surprenant.",resistance,
Nddl,,48.8744,2.3312,,,,Collectif de soutient à la ZAD de Notre dame des landes sur Paris. — http://www.nddl-idf.org/,resistance,
Marinaleda,,37.3718,-4.9591,,,,"Village d'environ 2500 habitants, connu pour sa résistance face aux aristocrates/propriétaires terriens de la région d'Andalousie. Le village fonctionne sur la base de 8 coopératives, et plusieurs dizaines d'hectares de terres, dont plusieurs récupérés par une lutte de plusieurs années, et l'occupation de terres. — Les maison sont là bas auto-construites, et elles reposent sur le droit d'usage, et non de propriété. — Depuis la fin de la dictature franquiste, Marinaleda fonctionne sur les principes de la démocratie directe. Tous les aspects de la vie sociale, politique et économique de la commune y sont discutés et mis en œuvre collectivement par les c (http://fr.wikipedia.org/wiki/Citoyen)itoyens. Juan Manuel Sánchez Gordillo, m (http://fr.wikipedia.org/wiki/Maire)aire de Marinaleda, est un militant de la gauche anticapitaliste régulièrement réélu depuis plus de 30 ans. http://www.marinaleda.com",resistance,
Café Comptoir Colette,,47.4022,0.6934,,,,"Café centenaire, associatif depuis 2011 et soutenu par le réseau des ZAD. — http://zad.nadir.org/spip.php?article2006",resistance,
Coopérative Longo Maï,,43.9784,5.7447,,,,"La coopérative Longo Maï est une coopérative agricole d’idéologie alternative, laïque, rurale et anticapitaliste, fondée en 1973 à Limans (Alpes-de-Haute-Provence), qui a essaimé en réseau depuis. Aujourd'hui, 10 coopératives Longo Maï existent, dont 5 en France, et 5 en Suisse et en Allemagne. —   — http://fr.wikipedia.org/wiki/Coop%C3%A9ratives_Longo_Ma%C3%AF",resistance,
Squat - L'hôtel des vils,,45.733,3.1229,,,,"Squat situé près de la gare de Clermont-Ferrand, dans une ancienne auberge de jeunesse. — http://hoteldesvil-e-s.blogspot.fr/",resistance,
Bonnefoy,,43.5804,1.4063,,,,"Quartier résistant qui comprend encore 3 squats, un appel à soutien et à visite a été lancé sur le site des ZAD — http://zad.nadir.org/spip.php?article1934",resistance,
Communauté de Landmatters,,50.371,-3.6744,,,,Communauté vivant selon les principes de la permaculture. —   — http://landmatters.org.uk/,resistance,
Squat - Bouquinerie Occupée L'Insoumise,,50.6241,3.0681,,,,"Bibliothèque, librairie et centre de documentation militant ouvert à tous, dans un local occupé depuis maintenant plusieurs années. Régulièrement, des projections, des réunions/débats ou une cantine végétarienne font vivre le lieu. — http://linsoumiselille.wordpress.com/",resistance,
Jardin des Maraîchers,,47.3036,5.0544,,,,"""Ferme maraîchère en lutte contre l'invasion des bulldozer"" — http://jardindesmaraichers.potager.org/",resistance,
Sadhana forest,,18.8335,-72.2241,,,,"Projet commencé après le tremblement de terre d'Haiti, basé sur la permaculture, et s'inspirant du projet indien d'Auroville. — http://www.sadhanaforest.org/",resistance,
Lutte des corralas de Séville,,37.3876,-5.993,,,,"Lutte pour le droit au logement à Séville, où des indignés-ées, militants-es et des familles à la rue ont commencé à occuper des bâtiments appartenant à des banques et fruits de la spéculation immobilière. Les bâtiments occupés, répondant au nom de ""corrala"" (puis un nom, tel que Corrala la Libertad, Corrala La Esperanza..) — Le premier bâtiment occupé fut la corrala la Utopia, en mai 2012. Là bas, des dizaines de familles vivent sans eau ni électricité, demandant un loyer social. — http://corralautopia.blogspot.fr/",resistance,
Mouvement NO TAV italien,,45.1356,7.207,,,,"Résistance au projet du Lyon-Turin dans la vallée de Suse, près de Turin. — http://notavfrance.noblogs.org/post/2013/07/11/no-tav-val-de-susa-nouvelle-attaque-nocturne-contre-le-chantier/",resistance,
Lutte pour sauver la forêt de Khimki,,55.8833,37.4333,,,,"Lutte écologiste contre le projet d'autoroute Moscou-Saint Pétersbourg, traversant la forêt de Khimki. —   — http://www.reporterre.net/spip.php?article4093",resistance,
Lutte anti-nucléaire en Inde,,8.1761,77.6953,,,,Lutte anti-nucléaire durant depuis 20 ans contre la mise en service de la première des deux centrales de 1 000 mégawatt (MW) dans le cadre du projet de centrale nucléaire de Kudankulam (KKNPP).  — Voir à ce sujet ce web-documentaire sur le projet de construction d'un EPR à Jaitapur: http://www.arevah.rfi.fr/ — http://www.ritimo.org/article4999.html,resistance,
Bourse du Travail - Lutte avec les Rroms expulsés,,50.6257,3.0895,,,,"Depuis le 28 octobre 2013 et l'expulsion de plusieurs centaines de Rroms des terrains où ils s'étaient installés, la plupart des familles sont hébergées dans les locaux des syndicats (en particulier Solidaires). La récupération et la solidarité permet d'assurer les besoins de base du groupe sans l'aide des autorités. — Les occupants sont organisés selon un mode autogestionnaire et luttent aux cotés des militants syndicaux et autonomes. Cette situation n'est cependant pas tenable sur le long terme, en raison ds tensions internes et des pressions policières, et seul l'action politique permettra de déboucher sur des solutions de logement alternatives. — http://solidariteromsfives.wordpress.com/",resistance,
Université populaire Ô château dans le ciel,,45.71,4.8203,,,,"L'université populaire Ô château dans le ciel est née en février 2013 lors de l'ouverture d'un squat collectif dans un bâtiment du Grand Lyon situé à Villeurbanne. S'en sont suivies une expulsion, la réouverture de l'université à Perrache, une nouvelle expulsion, puis une 3ème occupation en août dernier dans un immeuble du quartier de Vaise. — http://lyon-alternatif.fr/",resistance,
Grow Heathrow - Occupation,,51.4903,-0.4571,,,,"Grow heathrow est une occupation de terrain faisant partie du mouvement des villes en transition (mais liée à de nombreux autres mouvements alternatifs, tels que Reclaim the field, le Transition Network, Climat camp, ect.). Ils sont installés près de l'aéroport d'Heathrow depuis plusieurs années. Ils sont toujours présents malgré de régulières pressions policières et une expulsion en 2011. — Ils cultivent leur propre légumes et fruits, récoltent l'eau des toits pour les plantes, utilisent l'énergie éolienne et solaire. Ils visent l'autonomie, et s'opposent aux crise économiques, politiques et écologiques que provoquent notre système. — http://www.transitionheathrow.com/grow-heathrow/",resistance,
La R.O.N.C.E - expérience post-capitaliste,,47.8853,-2.9441,,,,"La « r.O.n.c.e. », acronyme pour résister/organiser/nourrir/créer/exister, est un collectif réunissant paysan-ne-s, artistes, mécano, cuisinier-ère-s, permaculturistes, botanistes, formateur-ice-s pour développer une base permettant l’expérimentation d’une vie post-capitaliste et de formes créatives de résistance. Notre collectif rassemble des gens engagés, en particulier dans la lutte de la ZAD (contre l’aéroport de Notre-Dame-des-Landes) et attachés à la méthode, au consensus, à l’expression des émotions. — http://lessentiersdelutopie.wordpress.com/?p=250&preview=true",resistance,
Cravirola - ferme autogérée,,43.3541,2.7466,,,,"Cravirola est une ferme autogérée où agriculture paysanne se mêle à engagement social et action culturelle. — Pour y aller: gare de Lézignan-Corbières, 40min de route. Aller à Minerve, prendre direction Boisset, puisvre les panneaux Boix-Bas. C'est à 10km du village. — http://www.cravirola.com/",resistance,
La communauté de Jansiac - La nef des fous,,44.1449,5.7413,,,,"Communauté vivant en autarcie depuis 1971 située à une cinquantaine de kilomètres de Sisteron, au milieu des montagnes. — Leurs valeurs et idées: — - abolition totale du salariat — - rejet des échanges d’argent — - choix du cadre de vie (ce que l’on perçoit) — - abolition du cadre familial, au profit de la communauté où chacun conserve toutefois son individualité — - rejet du principe de l’intérêt collectif primant sur l’intérêt individuel (décisions prises à la majorité exprimée) — - rejet du principe de propriété — - rejet de l’Education Nationale, jugée trop “normalisante” — http://www.robin-woodard.eu/spip.php?article510",resistance,
Hameau du castou - Communauté autogérée,,43.9885,7.552,,,,"Communauté autogérée depuis 20 ans. Cherchez ce hameau dans les environs de Vintimille.  — Collectif FAR (Ferme autogérée de la Roya), Quartier Cravirola 06430 La Brigue Tel : O4.93.04.70.65 Mail : contact@collectif-far.org",resistance,
Petit village de Yourte - Bussière-Boffy,,46.0488,0.8529,,,,4 familles vivant en yourtes dans le village de Bussière-Boffy doivent défendre leur mode de vie face aux autorités locales et la justice. — http://yourtesbussiere-boffy.info/,resistance,
Caracoles de Suc - ferme collective autogérée,,44.8295,4.6772,,,,"Ferme collective autogérée située à Saint-Fortunat (Ardèche). Vie rurale, paysanne et militante. —   — http://www.caracolesdesuc.org/",resistance,
Calafou - Coline éco-industrielle postcapitaliste,,41.5183,1.7076,,,,"Se dénommant ""colonie éco-industrielle postcapitaliste"", Calafou est un projet alternatif commencé en juillet 2011 avec l'achat d'un ancien village en ruine de travailleurs-euses textiles du 19ème siècle situé dans une vallée près du village de Vallbona d'Anoia. —   — https://calafou.org/en",resistance,
E.K.O - squat des indignés-ées,,40.3758,-3.7529,,,,Squat de 5 étages ouvert il y a 2 ans par les indignés-ées madrilènes. —   — http://eslaeko.net/,resistance,
Uli Alto - village occupé,,42.8372,-1.2365,,,,"Un des nombreux villages occupé dans les Pyrénées espagnoles, à 1h30 de Pampelune. — http://uli-alto.net/wiki/fr/pmwiki.php/Main/HomePage",resistance,
Medika - centre culturel autogéré,,45.813,15.9779,,,,"Medika, centre culturel autogéré dans le centre de Zagreb, ce centre accueil des travellers. —   — http://www.labkultur.tv/en/video/autonomous-cultural-center-medika-zagreb",resistance,
Lutte pour défendre la vallée de Laciana,,42.969,-6.3716,,,,Lutte pour protéger une vallée magnifique d'être détruite pour un projet de mine à ciel ouvert. — Il y a un projet en cours d'agriculture paysanne. Les opposants ont besoin d'aide d'urgence sur le terrain. — http://www.soslaciana.org/,resistance,
CSO Los 15 gatos,,37.1691,-3.598,,,,Centre social occupé et autogéré dans le centre de Grenade. — http://csoa15gatxs.blogspot.fr/,resistance,
La mer de plastique - désastre écologique,,36.7218,-2.749,,,,"La mer de plastique d'Almeria, culture intensive de fruits et légumes dans des milliers de serres en Andalousie. Des milliers de sans-papiers et d'immigrés sont exploités dans ces serres (cas d'esclavage), serres pour beaucoup illégales, empietant sur les réserves naturelles alentours, polluant terre et mer, et épuisant les nappes phréatiques de la région.",resistance,
Lutte contre un projet de golf géant,,42.6539,18.1041,,,,"Un promoteur a un projet de golf géant sur les hauteurs de la ville de Dubrovnik, classée au patrimoine mondial de l'Unesco. — En plus de golf, de nombreux hôtels et habitations de luxe sont prévues... — Une référendum local d'initiative populaire a eu lieu, rejetant massivement le projet mais la participation, trop faible, n'a pas permis de rendre le référendum valide.  — Le maire de la ville, corrompu, a tout fait pour que ce référendum n'aboutisse pas et à appeler les électeurs à ne pas se déplacer. — Le mouvement citoyen qui s'est constitué en opposition à ce projet à remporter quelques sièges aux dernières élections municipales.",resistance,
Taksim Gezi Park,,44.653,27.8613,,,,"Le Taksim Gezi Park est l'un des derniers espaces verts du centre d'Istanbul. — Alors qu'un projet de centre commercial prévoyait la destruction du parc, des écologistes (notamment Greenpeace et des Jeunes Verts Turcs) et des riverains ont commencé l'occupation du parc. — Début juin 2013, la violence de la répression policière menée contre cette occupation a réveillé l'ensemble de la Turquie. La mobilisation s'est élargie à d'autres thèmes comme la laïcité ou la démocratie et a gagné l'ensemble des villes du pays.",resistance,
Stuttgart 21,,38.4561,47.5355,,,,"Le projet de transformer la gare Stuttgart d'une gare terminus à une gare de passage souterraine a suscité une grande vague de mobilisation en Allemagne et fédérer des centaines de milliers d'opposants. — Le chantier, au coût colossal, nécessite en effet l'abattage de la plupart des arbres centenaires du parc voisin et la destruction d'une grande partie du parc.",resistance,
Save Rosia Montana,,46.3062,23.1303,,,,"Save Rosia Montana, lutte contre un projet de mine d'or à ciel ouvert qui deviendrait la plus grande mine d'or en Europe. — http://rosiamontana.org/en/",resistance,
Garden Coop Freiburg,,47.9899,7.8442,,,,Coopérative d'agriculture solidaire dans une ferme de 8ha gérée solidairement.  —   — Développement d'un modèle d'économie solidaire et d'une autonomie alimentaire. —   — Plus de 800 personnes reçoivent des paniers de nourriture bio livrés à vélo dans différents points de livraison de la ville. — http://www.gartencoop.org/tunsel/,resistance,
Squat des Tanneries,,47.3221,5.0335,,,,"Espace autogéré des Tanneries, centre social autonome, infokiosque, zone de gratuité, informatique dissident, etc.  — Ne pas venir sans prendre contact au préalable...! Merci! — http://tanneries.squat.net/",resistance,
Fukushima-Daiichi,,37.3167,141.0263,,,,"Lieu de la catastrophe nucléaire de mars 2011, toujours en cours...",resistance,
La Cabrery - Longo Maï,,43.7876,5.5999,,,,"LA CABRERY 84240 La Bastide des Jourdans près de Vitrolles. Une des coopératives Longo Mai, axée sur le maraichage bio, 10 habitants.",resistance,
ITER - Cadarache,,43.6997,5.7678,,,,"Un projet de réacteur à fusion nucléaire — coûteux, dangereux et inutile. — http://www.stop-iter.org/",resistance,
Troglobal,,46.4984,-0.3516,,,,Village d'écologistes décroissant vivant des grottes en harmonie avec la nature loin de la perversité de notre société de consommation. — Une vingtaine de personnes viennent du monde entier pour y vivre de bons moments. La dimension artistique du village et très présente. — Plus d'info sur http://www.reporterre.net/spip.php?article5010,resistance,
Matavenero - Village rainbow,,42.5364,-6.3688,,,,"Matavenero — Village rainbow accessible a pied http://matavenero.es/en/node/24 24370, Torre del Bierzo, Spain Bergdorf Matavenero in Spanien. Mountain-Village in Spain. Alternative Living Community.  — Website: www.matavenero.com  — More: Blog-Eintrag zu Matavenero bei Hellseher.",resistance,
Communauté de Damanhur,,44.5905,16.6992,,,,"Damanhur — 800 People Community close to Baldissero Canavese, click here for detailed directions. Watch Images of the Temples at http://www.thetemples.org/. http://www.damanhur.info/ http://en.wikipedia.org/wiki/Federation_of_Damanhur Eighth Wonder of the World",resistance,
The Dharma House,,44.2771,4.2235,,,,"The Dharma House, Route de St. Sauveur de Cruzières, Mallemontade, 30500 St. Brès, France. SITE OFFICIEL   Bienvenue à la Maison du Dharma - une petite communauté, qui s’inspire des enseignements du Bouddha et de l’idéal de vie en connection avec d’autres, proches de la nature. Notre objectif est d’explorer un mode de vie centré autour d’une éthique écologique et durable, en mettant un accent sur l’intégration d’une prise de conscience attentive aux activités du quotidien. La Maison du Dharma se situe dans les Cévennes, au cœur du Parc National, avec vue sur la Cèze. La propriété se trouve au sommet d’une colline, et couvre 4 hectares de terres agricoles avec une grande diversité de plantes et d’arbres (oliviers, amandiers, pruniers, mimosas, figuiers,…). La communauté s’occupe de cultures sous polytunnel, et restructure le terrain selon des principes de permaculture",resistance,
La Cantoyourte - Yurtao,,44.2916,4.0955,,,,"Le camp de yourtes se situe au bord du village de Besseges, ancienne petite ville minière des Cevennes, à trente kilomètres au Nord d'Alès, capitale des Cevennes. en haut à droite le quartier de la Cantonade, et au milieu, dans le berceau d'une vallée transversale, touts petits, les toits clairs yourtes. Elles sont donc positionnées au bout du quartier et à l'orée de la forêt, au début du sentier du Ronc rouge et du chemin de grande randonnée 44. Voir l'article:""yourtes en Cevennes"" http://yurtao.canalblog.com/archives/2007/11/01/6740532.html Le Cantoyourte se situe dans le Nord du Gard, dans les Cevennes Minières. Trois jolies yourtes sont posées sur un terrain boisé d'acacias, en bordure d'un village de 3200 habitants: Bessèges. La rivière la Cèze qui coule en contrebas du camp, et sur les berges de laquelle s'étend longuement la rue",resistance,
Stade Nice dans l'éco-vallée,,43.6977,7.2139,,,,"Stade de foot Allianz-Riviera en voie d'achèvement dans l'Eco-Vallée Plaine du Var, projet d'intérêt national",resistance,
Flamanville - chantier de l'EPR,,49.5367,-1.8824,,,,Réacteur à eau pressurisée actuellement en construction qui s'étend sur 120 ha.,resistance,
15-M Sevilla,,37.4007,-6.1633,,,,"Les indignés sont assez présent dans Séville et sa région. Le mouvement est aujourd'hui constitué de nombreuses assemblées de quartier, agissant au niveau politique, social et économique. —   — http://sevilla.tomalaplaza.net/",resistance,
15-M Granada,,37.1822,-3.6749,,,,acampadagranada.org,resistance,
15-M Madrid,,40.4302,-3.7354,,,,http://madrid.tomalaplaza.net/,resistance,
Lutte d'Oaxaca et de sa région,,17.0463,-96.7346,,,,"Expérience d'autogestion à échelle régionale entre 2006 et 2007, avant la terrible répression de l'Etat.  —   — http://alterautogestion.blogspot.fr/2011/03/mexique-la-commune-de-oaxaca.html",resistance,
Eco-village,,41.7482,13.657,,,,"Italy Ecovillage — This is a really a special place. The farm was abondoned over fourty years ago and we are gradually bringing it back to life. The farm is rustic but extremely beautiful. Most of the people who come overstay their visit. It is not the usual wwoof experience really. For example I am not the host and I do not even live there. It is really a place more suitable for indipendent people. You can come up with your little project, we can talk about it and we can see if it is possible. There is room for that here. We are looking for someone who has spare time and wants to stay four several months. We also like people who visit for a short time and in the past we had several couchsurfers visiting the farm. We will continue hosting couchsufers next year since we really enjoyed it. So you are also welcome to visit. But we need few people who stay long. We work on the vegetable garden, we want to do adobe houses etc. etcs. Bear in mind that the farm is rustic",resistance,
Les lunettes - lieu de vie,,46.4237,5.7901,,,,"Lieu de vie collectif de la Lune Nette Contact : Marie-Laure Moucheroud Lieu dit Les Lunettes 39170 Saint-Lupicin Tél.: 03 84 42 17 65 Courriel : lalunenette@yahoo.fr (adresse mise à jour : juin 2007) communauté participative ouverte créée en 1996, liée aux Rainbow Gathering. 2,75 ha. 5 habitants permanents, locataires temporaires, nombreux visiteurs à court ou long terme. Boulange, poules, chevaux, jardin, chantiers de rénovation, artisanat d'inspiration amérindienne, construction de superbes tipis... Et une rivière magnifique avec cascades, bassins... Nous sommes 5 habitants permanents (4 adultes, 1 enfant), et vivons à la fois dans les bâtiments et dans les tipis (2 achevés, 1 en cours de construction). Notre groupe s'est réorganisé pour développer différentes activités sur place (non commerciales) : jardinage pour notre consommation (nous sommes végétariens), fabrication de notre pain au four à bois, accueil d'hôtes et de woofers, auto-construction,...",resistance,
Listes de sites à consulter,,77.3125,-41.8359,,,,* http://decroissons.wordpress.com/habitat/village-associatif-alternatif/ —   — *http://ecovillage.wikia.com/wiki/Main_Page —   — *http://ecoclash.over-blog.org/page-667382.html — *http://voyageurs.en-transition.fr/categ — *http://toudagou.dyndns.org/voyageurs.en-transition.fr//carte.html — *https://maps.google.com/maps/ms?ie=UTF8&oe=UTF8&msa=0&msid=217099418962518226328.00044786646fd2372bada,resistance,
Tordères - commune autogéré,,42.5598,2.7515,,,,"Avec 180 habitants, le petit village de Tordères dans les Pyrénées Orientales s’est fait connaître pour son fonctionnement municipal inhabituel : le pouvoir y est aux villageois, et la démocratie, participative. Une expérience d’auto-gestion discrète mais bien rodée. — http://www.article11.info/?Torderes-commune-autogeree-mode-d",resistance,
Alter-Nativa,,48.7676,20.3384,,,,"Ferme en permaculture, accueil des bénévoles, et organisent des formations sur la perma' — http://www.alter-nativa.sk/eng/index.php?akcia=zobraz&id=23&subm=2",resistance,
Communauté de Folleterre,,47.75,6.5773,,,,"Plutôt Anglophone, queers radicaux et écolo, ""radical faeries"" (queer et païens - voir ""paganisme"" ou ""wicca"" sur wikipedia- ), proche du village de Mélisey, dans les Vosges. Organise régulièrement des rassemblement d'échanges de savoir/ des chantiers, pas encore de membres résidents (mais pour bientôt)www.folleterre.org/home.htm (http://www.folleterre.org/home.htm) pour + d'infos ou dans la section directory sur ic.org  Important : les contacter avant de s'y rendre",resistance,
"Oasis ""Le Val heureux""",,48.7055,1.582,,,,"L'APACRETE: Cette association vise à réaliser un jardin biologique partagé sur environ 3000m², avec potager, verger, et utilisation des techniques d'agroécologie comme la permaculture. Le site en entier se revendique comme un ""oasis en tout lieux"", démarche initiée par le mouvement du même nom et Pierre Rabhi. L'objectif est de faire un lieu de pédagogie sur la construction écologique (voir présentation du projet), la culture biologique et l'agroécologie, et de fournir un exemple partique d'une organisation sociale différente du calamiteux lotissement pour l'aménagement des zones péri-urbaines. Contact : Alain Degrigny Le Val'heureux, 9 rue du val d'orléans 45140 Ingré Tel : 02 38 72 54 57 ou au 02 38 43 07 37 sur un répondeur permanent",resistance,
PermaLot,,49.7072,16.9219,,,,"Ferme vivant selon les principes de la permaculture, organisant des formations à ce sujet, ainsi que dans les constructions naturelles. —   — What's PermaLot?Briefly: A loose network of people interested in promoting a more sustainable way of life!Locations: Over the hills, through the woods, in an remote area of Olomouc region that's where you'll find the little Hamlet of Bouzov Svojanov; a 600 year old village with a present-day population of only 20 local Czech people. It is also here that you will find a 10 hectare organic certified land trust owned by the non-profit organisation PermaLot and managed as a model for rural sustainability and in doing so seek to return life to an area almost abandoned by the modern migration to the city.Not far from the landtrust is where you'll find a slightly larger village, Bouzov Podoli, which is where the administrative center for PermaLot lies, along with many of the activities such as public education, courses, political work, creation of a school for natural building and a modern family house demonstrating natural building and renewable energy. http://permalot.org/en — http://www.permalot.org/",resistance,
Escanda,,43.1581,-5.831,,,,Espacio Social Colectívo para la Autogestión la Diversidad y la Autonomía —   — http://www.escanda.org/index.php,resistance,
Frayssinous - hameau collectif,,43.9482,2.8634,,,,"FRAYSSINOUS 12400 REBOURGUIL 05 65 99 86 72 — Hameau collectif rural depuis 1971. La communauté anarchiste babos d'origine a éclaté mais il y a maintenant une dizaine d'habitants de 20 à 40 ans qui vivotent entre rénovation des bâtiments, yourtes, maraîchage, boulange, travaux saisonniers à l'extérieur, et s'adonnent à la musique, la video, etc. Sympathique squat à la campagne. Commerces les plus proches à 15 km soit 1 heure de vélo.",resistance,
Treynas - Longo Maï,,44.9133,4.2963,,,,"TREYNAS 07310 CHANEAC 04 75 30 45 85. Une des cooperatives Longo Mai. 15 habitants, elevage de moutons.",resistance,
La Peyramont - Pain bière céréale musique...,,44.7497,3.9561,,,,"LA PEYRAMONT — Antoine Guidot — , 07660 Lanarce , FRANCE — Tel : 0033 (0) 46669 4327 — Fax : 0033 (0) 46669 4327 — Email : lapeyramont@no-log.org — La ferme se trouve à 1 200m d'altitude, ici c'est la vie de montagne. Nous cultivons des céréales sur environs 5 ha (sarrazin, blés, seigles et épeautres anciens, orges de brasserie). Avec ces graines, nous fabriquons du pain et de la bière; tout est vendu sur les marchés. Nous sommes trois permanents: Anna avec les jardins, Raphaël s'occupe plus de la bière et Antoine du pain. Nous avons besoin de personnes pour participer à la construction de deux petits bâtiments en bois et paille prévus à partir de Juin. Les autres travaux se rapportent aux céréales, aux jardins de légumes, au battage du seigle, au défrichage, au bois de chauffage avec les chevaux tant que possible, et au foin. Nous aimons passer du temps à jouer de la musique, alors bienvenue aux musiciens, musiciennes, et autres artistes.. — organic farm. — We are : community — Number of :  adults 3, children 3 — Accommodation : individual rooms, caravan — Can Accommodate Children : yes — Location : near other houses — Getting There :  can collect at train station — Work With : gardens, woods, children, building — Languages Spoken :  English, French, German, Spanish — Diet :  vegetarian OK — Hours per Day :  6 — Days per Week :  5 — Minimum Stay (Weeks) : 2 — Months Most Needed : 4 - 1 1 — Months NOT Needed :  1 2 - 3",resistance,
Oasis de Payzac,,44.452,4.0965,,,,"OASIS DE PAYZAC 07140 LES ASSIONS 04 75 88 57 40. eco hameau créé en 2001, fabrication de papier, boulange, plantes medicinales...",resistance,
Filature de Chantemerle - Longo Maï,,44.9372,6.5983,,,,"FILATURE DE CHANTEMERLE 05330 CHAFFREY 04 92 24 04 43. Pres de Briançon et de Serre-Chevalier, une des cooperatives Longo Mai, qui travaille la laine des moutons et produit des vetements.",resistance,
Bosque Village - Michoacán,,19.5665,-101.7068,,,,"Bosque Village, located in the Mexican highlands, is a combination of a campground, eco-retreat center, permaculture farm and a growing intentional community. We offer many different types of retreats, events, and personal programs for those interested in a visit. - See more at: http://bosquevillage.com/en/#sthash.KtajPdRk.dpuf —   — http://bosquevillage.com/en/",resistance,
Le village Espérance,,47.9642,-3.4175,,,,"Source: http://www.passerelleco.info/ Un havre de paix, de fraternité et de joie. Dans un site vallonné et boisé aux marches du Finistère et du Morbihan, un domaine de 10 ha est prêt à vous accueillir, gratuitement et en ami, si vous ne savez où aller ou si vous aspirez à vivre autrement. La vie y est simple et en harmonie avec la nature, comme la connaissaient les ancêtres avant qu'existent l'eau courante et l'électricité. Il y a 2 étangs où l'on peut se baigner et plusieurs sources d'eau potable, des terres cultivées depuis 20 ans sans machines, selon les méthodes naturelles ; elles sont fertiles et fournissent les céréales dont le blé qui sert à faire le pain ""à l'ancienne"" , des fruits et les légumes en quantité et en bio, permettant de faire de nombreuses conserves pour l'hiver. Il y a des prairies naturelles pour le pâturage et le foin pour une vache pie-noire et sa jeune génisse, un âne, des chèvres, sans oublier les poules et leurs bons œufs.",resistance,
Village d'Éourres,,44.2134,5.6986,,,,"Ancien village qui était en voie d'abandon. Les maisons sont progressivement rachetées et rénovées par un collectif informel, le village compte aujourd’hui hui une cinquantaine d habitants plus ou moins investis dans l'écologie et les alternatives... On y trouve un camping, une Biocoop, une maraîchère, des chevriers, une bergère, des artisans, des activités touristiques, une école primaire et une classe de collège, des yourtes... Et aussi beaucoup de vehicules 4x4, l'accès au village étant difficile et escarpé. A éviter si vous êtes a vélo, a moins d etre vraiment sportifs !",resistance,
Martine's place - Plantes et divers,,43.7283,4.7133,,,,"MARTINE'S PLACE — Martine DAGRAN — Mas d'Abeille , 13990 Fontvieille , FRANCE — Tel : +33 (0)4 90 54 70 21 (please keep ringing !) — Email : martine_dag@hotmail.fr — Ma ferme est en pleine nature à 25 km de la Camargue et d'Avignon et à 3 km d'un village provençal. J'ai un chat et un chien. Le travail est varié, lié aussi à la protection de la nature et des arbres. Je peux partager mes connaissances pratiques en plantes médicinales et/ou comestible ainsi qu'une pratique de la méditation yoga ou Qi Gong. En été possibilité de baignade, et belles promenades toute l'année. Je parle couramment anglais et espagnol et peut vous aider à vous perfectionner en français éventuellement.",resistance,
Woofing - Pech d'Aspes,,43.148,2.3753,,,,"Aménagement, construction, plantations, soins aux chèvres, fabrication de fromages, pains au levain, récolte de miel, soins aux ruches,.... — PECH DASPES — Favier Eric & Joëlle — 11570 Mas-des-Cours , FRANCE — Tel : 0033 (0) 468789665 — Email : ericetjoelle@wanadoo.fr  — Petite ferme isolée, en cours d'installation, visant l'autonomie alimentaire située à 15 Km au sud de Carcassonne offre logement et nourriture en échange d'aide à la ferme.  — organic farm adults 2 — Accommodation :individual rooms — Work With : gardens, animals, alternative technologies, building — vegetarian OK, vegan OK — Hours per Day : 5 Days per Week : 6 — Min Stay (Weeks) :1 Max Stay (Weeks) :8 — Months Most Needed :  3 - 1 2",resistance,
Hameau de Boussac,,44.2373,0.4395,,,,"- RURALIS BP 23 Hameau de Boussac 47130 Port-Sainte-Marie Tél.: 05 53 47 41 42 Situé dans le Lot-et-Garonne, Ruralis est une tentative de village écologique, qui comme les ""Oasis en tout lieu"" de Pierre Rabhit veut prouver qu'il est aujourd'hui possible d'organiser l'exode urbain.",resistance,
Yorkley Court Community farm,,51.71,-2.5543,,,,Yorkley Court Community Farm — Sustainable Agriculture in the Forest of Dean — http://yorkleycourt.wordpress.com/,resistance,
Center for alternative technology,,52.5893,-3.854,,,,"CAT is an education and visitor centre demonstrating practical solutions for sustainability. We cover all aspects of green living: environmental building, eco-sanitation, woodland management, renewable energy, energy efficiency and organic growing. — http://www.cat.org.uk/index.html",resistance,
Makvärket - a cultural and environmental collective,,55.6635,11.5528,,,,"Makvärket is.. — ✯ A growing community of people working practically and theoretically, self-organized and voluntarily for the increasingly necessary cultural, social, environmental and economical transformation of society. — ✯ A collective and an association working with culture and environment at the former 10.000m2 Ceramics factory in Knabstrup. The association provides a formal structure as well as a background network for Makvärket’s activities. It is there to form an overall collective vision of our work, the structure we can hang our ideas and dreams upon. — ✯ An ambitious construction project of a 2000m2 centre for culture and ecology. A multihall for circus, dance, theater, concerts, rehearsal and shows, foyer and big kitchen area, wood and metal workshop, music and multimedia workshop, art space, recycled materials storage, seminar/guest house, permaculture garden. — ✯ A travelling community organising events outside of the factory. — http://makvaerket.wordpress.com/ — theincrediblylongjourney.com/2013/12/07/makvarket/",resistance,
Bateau-stop / Boat hitchikking,,27.975,-15.5237,,,,Good spot to try to get to South America by boat. You'll be able to get to Trinidad y Tobago. — Bon spot pour traverser l'Altantique jusqu'en Amérique du Sud. Vous pouvez essayer de faire du bateau-stop pour Trinité et tobago,resistance,
Sahraoui struggle for self-determination,,24.687,-12.4365,,,,"Colonized by Spain and then Morocco, Western Sahara and it's people, the sahraoui people, have been struggling for decades for it's self determination. — Lutte du peuple sahraouis pour son droit à l'autodétermination. — http://ap-so.blogspot.fr/ — http://ap-so.blogspot.fr/",resistance,
Action camps and events coming up - spring and summer 2015,,43.9612,-23.2031,,,,"-  Skill sharing camp at Hambacher Forst / 6-12 avril — -> http://hambachforest.blogsport.de/information-about-the-forest/skillsharing-camp-april-6-12-2015 — -  Rassemblement estival à Notre Dame des Landes / 11 et 12 juillet — ->http://www.acipa-ndl.fr/actualites/divers/item/480-prochain-rassemblement-estival-organise-par-la-coordination-des-opposants — - European anti-facking gathering (?) between France and Spain. — -    Antimilitarist camp in Germany / 25 july - 3 of august 2015 — -> http://www.warstartsherecamp.org/ — - Climat camp / action camp near Cologne. — -> 9 to 17th of august 2015 — -> massive actions 15-16 of august — + degrowth summer school, same dates and place. — -> http://www.klimacamp-im-rheinland.de/en/2015/01/12/mass-action-of-civil-disobedience-in-the-rhineland/ — - Reclaim the Field's action camp, — -> september 2015, in Greece, Thelesalonica, against a gold mine project.",resistance,
Communauté de Los portales,,37.6632,-5.9972,,,,"Communauté à 60km au nord de Séville, avec une ferme de 200ha. — Communauté spirituelle, cultivant fruits et légumes, proposant formations, ateliers et journées portes ouvertes. — Ils cherchent l'autosuffisance alimentaire et énergétique. Leur énergie est principalement solaire, et ils ont pour projet de construire eux-mêmes des maisons passives à basse consommation d'énergie. — http://www.losportales.net/ — L'accueil et les formations sont payants d'après leur site",resistance,
Ferme coopérative de la Fontié,,43.782,1.9329,,,,"Projet collectif depuis 2012 de lieu habité et ouvert à un usage coopératif. Voilà comment ils décrivent leur projet: — "" La Fontié sera à la fois terrain d'expérimentation et d'apprentissage, terroir porteur d'histoires anciennes et de rêves à — venir; territoire dont nous aspirons à devenir non pas les propriétaires, mais avec d’autres, les continuateurs et les responsables. Il s'agit pour nous de remettre les pieds sur terre et de retrouver une existence basée sur l'autonomie collective, l'entraide, la simplicité, la joie de vivre; pour tout dire d’opérer une reprise de pouvoir sur nos vies engluées dans les progrès du déracinement et de l’enfermement ambiant. "" — Infos et liens: — - http://data0.revolublog.com/cambusiers81/perso/fontie.pdf — - http://www.franceculture.fr/emission-terre-a-terre-la-ferme-la-fontie-2014-05-24-0 — - http://anarchrisme.blog.free.fr/index.php?post/2013/03/28/La-Fonti%C3%A9-%3A-vivre-sur-une-terre-commune",resistance,
ZAD du Testet,,43.9243,1.7872,,,,"81310 Lisle-sur-Tarn — Projet de construction d'un barrage sur une zone humide. Occupation et répression active en ce moment, appel à mobilisation !! — http://tantquilyauradesbouilles.wordpress.com/",resistance,
Communauté de Tamera,,37.7145,-8.5153,,,,"The Healing Biotope I Tamera is a peace research project with the goal to create the model for a future society that is free from hatred, lies, violence and fear. Tamera should become an acupuncture point of peace, a greenhouse of trust, a prototype for an existence free of fear on this planet, a post-capitalist societal model and a place where the human and meta realm of life come together.  — Website: http://www.tamera.org/index.html — Adresse: Monte do Cerro, Odemira — 7630-303 Colos, Portugal",resistance,
Ecolieu du Portail,,46.8239,5.3364,,,,"Du Grain à Moudre, 7 rue du Portail 71270 Torpes http://tri-lingual-farming.blogspot.fr",resistance,
Manoir de La Grée,,47.8254,-1.4182,,,,"http://www.lagree.cc/ Le projet de ce collectif est une expérimentation humaine visant l’autonomie comme dynamique sociale en harmonie avec la nature. — Dans la convivialité, avec un esprit de simplicité, les habitants vivent ensemble, tissent des liens avec le territoire, rénovent, cultivent, plantent, pétrissent et récoltent.",resistance,
Ecolieu de Galinette,,43.8726,-1.063,,,,"http://ecolieu-galinette.puzl.com  L'association a pour but de créer du lien et de transmettre des savoirs autour de l'agriculture, la boulangerie paysanne, la sobriété énergétique et l'auto-suffisance.",resistance,
Ecolieu du Moulin,,43.4291,0.3097,,,,http://ecolieu.blogspot.fr/ Mielan 32170.,resistance,
L'Oasis de Pen an Hoat,,48.333,-3.2974,,,,http://www.agroecologie-bretagne.com/  Partenaire de Terre & Humanisme. Fait partie du Mouvement des Oasis en Tous Lieux..,resistance,
Heol Eco-hameau,,47.641,-1.4049,,,,"http://www.heol2.org De la ""Maison autonome"". à l'Écohameau du Ruisseau",resistance,
Oasis Bellecombe,,44.5034,5.3819,,,,"L'Oasis Bellecombe est un ""éco-site"" où Corine et Michel les"" gardiens"" du lieu, essayent de démontrer la possibilité pour l`être humain de vivre en autonomie, et en harmonie avec la nature. Nous vous y accueillons le temps d’une nuit ou d’un séjour plus long, dans des hébergements insolites de type yourtes, tipi, roulotte, cabane dans les arbres ou votre tente. http://www.oasisbellecombe.com",resistance,
La Cité Écologique de Ham-Nord,,45.8547,-71.639,,,,"689 8e RangHam-Nord, Québec G0P 1A0, Canada+1 819-795-8396  http://citeecologique.org",resistance,
Les Plateaux Commun'ô'Terre,,48.2251,-70.2147,,,,"« Ici, nous croyons en l’importance... de préserver l’intégrité et la beauté de la nature, d’utiliser des méthodes de culture écologique, et de faire montre de respect et d’ouverture dans toutes nos relations.Ce qui distingue la vie ici, c’est notamment le partage, l’entraide, la recherche de consensus, la diversité d’âges et de styles de vie, et l’équilibre entre les sphères de vie communautaire et privée. » http://www.earthrainbownetwork.com/Plateaux.htm",resistance,
Comunidad Ecologica Urbana Autosustentable,,13.8157,-89.2334,,,,"Casas para 60 familias de mediano y bajo nivel economico. Diseño de Permacultura. Energias renovables. Projected Ecovillage in the region of San Salvador, Central America, backed by the municipal government and a group of architects.Contact : Municipio de Nejapa, Departamento del Salvador, San Salvador",resistance,
Green Valley Village,,38.4547,-122.93,,,,"We are a collective of thirty-five adults and a dozen children spanning three generations, who live, learn, work, and celebrate life together on 300 plus acres of farm and wilderness in West Sonoma County. We share five residences among us, which are part of the historic Giovannini homestead ranch.   http://www.greenvalleyvillage.com/node/7 —     We count among us ecologists, farmers, homesteaders, permaculturalists, entrepreneurs, innovators, educators, healers, crafters, eco-builders, child-rearers, musicians, artists, and re-thinkers. — We are part of the larger movement of “Cultural Creatives” that value peace, social and ecological well-being, justice, sharing, and expansion into new ways of being.  ",resistance,
Mama Roja Sustainable Living Centre,,-27.4653,-55.0001,,,,"Lote 161 Secc XI, Campo Ramon, Obera, Misiones, Argentine, CP3367. http://www.mamaroja.org/fr/about/  http://mamaroja.blogspot.fr/  https://www.youtube.com/watch?v=phe7pNn-oYI",resistance,
Dancing Rabbit Ecovillage,,40.3327,-92.0963,,,,"1 Dancing Rabbit LaneRutledge, Missouri 63563, United States.  http://www.dancingrabbit.org   Dancing Rabbit is an ecovillage and intentional community of about 70 people set amid the hills and prairies of rural northeastern Missouri. Our goal is to live ecologically sustainable and socially rewarding lives, and to share the skills and ideas behind that lifestyle.",resistance,
Sandhill Farm,,40.3139,-92.0883,,,,"http://www.sandhillfarm.org  An egalitarian intentional community. We invest a lot of our energy in self sufficiency projects and in enjoying the present. Our day to day activities are a blend of income work and commitment to the land along with personal tasks and hobbies. We are gardeners, farmers, beekeepers, group process consultants, office managers, students, organic farm inspectors, homebrewers, orchardists and musicians among other things. Some of us are activists working for the Fellowship for Intentional Community, for local community issues and for various sustainable ag groups . Sandhill Farm is also a member of the Federation of Egalitarian Communities. We strive for joy and positivity in our lives. It is expressed in our language, cooperation and affection for each other. We keep centered as a group by sharing feelings at meetings, holding hands before our evening meal, laboring together on work projects, creatively sharing holidays and special times together.",resistance,
Red Earth Farms,,40.339,-92.1081,,,,"Smith Rd, Rutledge, MO, États-Unis. Red Earth Farms is an intentional community of homesteads sharing a 76-acre land trust in the rolling hills of northeast Missouri. Our community’s mission is to creatively explore and evaluate sustainable ways to meet our needs in accordance with our guiding principle: “Love the land; love your neighbors.” Members choose how they personally want to pursue this mission. As a group we value diversity, cooperation, and nonviolence; make our decisions by consensus; and do our best to live with honor and respect for all the beings around us. — We see Red Earth Farms as one positive alternative to an increasingly unsustainable and isolating mainstream culture. By building and valuing our connections with the land, with other people, and with ourselves, we believe we are helping to create a better future. http://www.redearthfarms.org/",resistance,
East Wind Community,,36.5826,-92.3216,,,,"http://eastwind.org.  East Wind is a community of people living and working in the beautiful hills of the Missouri Ozarks. We hold our land, labor, and other resources in common. We are a member of the Federation of Egalitarian Communities, and as such, we put great value in cooperation, nonviolence, and sharing. Our aim is to create an egalitarian communal lifestyle. We encourage individuality and diversity in our members.We support ourselves through two industries: East Wind Nut Butters and Utopian Rope Sandals. You can purchase our products at East Wind Crafts. Our work lives are busy and varied, but we always find time to relax and enjoy community meals, music jams, and Ozark sunsets. Our land is one of a kind, very rural, and filled with all sorts of wildlife.",resistance,
Acorn Community,,38.011,-77.9083,,,,"http://www.acorncommunity.org.  An egalitarian, income-sharing, secular, anarchist, feminist, consensus-based intentional community. Supporting radical sharing, positive communication, compassion, consent culture, sustainability, and anti-oppression activism. Living free of hierarchy and coercion.",resistance,
Twin Oaks Community,,37.9328,-77.9925,,,,"http://www.twinoakscommunity.org. Twin Oaks is an intentional community in rural central Virginia, made up of around 90 adult members and 15 children. Since the community's beginning in 1967, our way of life has reflected our values of cooperation, sharing, nonviolence, equality, and ecology.",resistance,
Living Energy Farm,,38.0384,-77.9894,,,,"The Living Energy Farm is a project to build a community, education center, and farm that demonstrates that a fulfilling life is possible without the use of any fossil fuels. Our mission is to serve as an example that actively promotes lifestyles and technologies that are truly sustainable, and to make these sustainable technologies accessible to all persons regardless of their income or social position. We are a growing community that is several years in the planning. We acquired our farm in 2010 and are now engaged in a period of rapid and exciting growth. We are looking for people interested in all levels of involvement, ranging from joining our saturday work parties, interning, or joining the income-sharing membership.http://www.livingenergyfarm.org   Living Energy Farm1022 Bibb Store RoadLouisa, VA, 23093",resistance,
Emma Goldman Finishing School,,47.5913,-122.3164,,,,"Founded in 1996, the Emma Goldman Finishing School is an intentional community in the North Beacon Hill neighborhood of Seattle. Formerly known as the Beacon Hill House, we changed our name in November 2003. — Our community is based on the principles of societal change, egalitarianism,  non-violence, ecology, simplicity, community living. Our home is a fun and supportive place to live, and it is also an institution working to build economic, political, and cultural alternatives. We see ourselves as part of a growing infrastructure designed to oppose and replace the dominant system. As an egalitarian community, we value our labor equally. — Some of us work more hours at jobs which bring in money, others work more around the house and on community projects. Regardless, we all contribute equal time. Every member is able to have all their basic needs met by the community, including food, shelter, transportation, health care, and retirement. — Currently, the community consists of eight residents, five women and three men, ranging in age from their mid twenties to late forties. We are writers, musicians, socal workers, activists, gardeners, dancers, educators, anarchists, nurses, queers, geeks, unionists, kayakers ,artists, athletes, and revolutionaries.We currently have openings for 4 long-term members, and are especially interested in folks in their 30s, 40s, 50+s. Although we work to maintain gender and age balance and to preserve our community's values and politics, we welcome all ages, ethnicities, abilities, orientations, and class.address: 1309 13th Ave. S. Seattle, WA 98144.  http://egfs.org/ — . ",resistance,
The Midden,,39.9953,-82.9969,,,,"A small yet established anti-authoritarian and egalitarian urban community. We are a collective house in Columbus, OH creating a life together around shared principles, a wood stove, and much more! A midden is an intriguing or marvelous rubbish heap. Packrats and octopi make middens—so do ocean currents and human civilizations. We call our house The Midden because we make use of the artifacts (groceries, furniture, shoes) thrown away or overlooked by mainstream society. And all the while, we’re using this stuff to build more whole and meaningful systems to provide for ourselves.We also love to care for each other, share our skills and ideas, and do what we can to confront systems of oppression that bring us all down. We’re eco-activists, prison abolitionists, housing justice advocates, writers and theatre artists, adventurous human beings and more. — We believe in things like: doing it ourselves, anti-authoritarianism, using (and re-using) our resources responsibly, friends and hanging out, dumpstering, caring for each other and staying solid. You can read lots more on our website http://themidden.wordpress.com/. — 379 Chittenden AveColumbus, Ohio, 43201United States.http://themidden.wordpress.com/",resistance,
Sapling Community,,37.9063,-77.9737,,,,"Sapling Community is the newest branch of the family of income-sharing communities in Central Virginia that also includes Twin Oaks, Acorn and Living Energy Farm. We are 5 adults and 3 children living on 3.5 acres of land. We are surrounded by woods and agricultural land owned by other communities and ex-community members. — We hold egalitarianism, environmentalism, cooperative living and resource sharing as core values.  — As a manifestation of our values, we plan to retrofit our recently-purchased mainstream manufactured house and recently denuded landscape into an energy efficient, low carbon footprint homestead over-flowing with beautiful gardens. We believe this reflects as important a concern as preserving the environment: restoring what has already been destroyed and altering what already has been built to fit a sustainable paradigm.. Our primary business is Garden Medicinals and Culinaries, selling heirloom, open-pollinated and non-GMO herb seeds,http://www.saplingcommunity.org/",resistance,
Skyhouse Community,,40.3327,-92.0955,,,,"Skyhouse is a four member community located three miles from Sandhill Farm in northeastern Missouri. The focus of our group is to build an ecovillage (known as Dancing Rabbit) as an example of truly sustainable living. Skyhouse is the first subcommunity in the DR model, with other communities expressing interest in joining.We make decisions by consensus and have frequent interpersonal and business meetings. We are entirely income sharing and currently earn our income by computer consulting (telecommuting) and working for the Fellowship for Intentional Community. — We at Skyhouse work towards a sustainable lifestyle by gardening organically, favoring alternatively powered transportation over gas engines, conserving energy, and promoting awareness of environmental issues such as alternative energy and appropriate technology. We are working towards creating the town of Dancing Rabbit to be economically and socially self-sufficient. — Our members have varied and diverse interests such as sustainable technology, political activism, farming and gardening, ecological construction methods, and alternative education. Skyhouse welcomes visitors interested in our subcommunity as well as people looking to learn about or participate in Dancing Rabbit.   http://skyhousecommunity.org/",resistance,
EcoVillage Ithaca,,42.4416,-76.5442,,,,"175 Acres, 75 Homes, 175 Residents (and growing).EcoVillage currently includes two 30-home cohousing neighborhoods, FROG and SONG, with a third cohousing neighborhood, TREE under construction. The first TREE homes are completed, with all 40 to be finished in 2014. With a total of 100 homes, this will be the largest cohousing community in the world! Our residents will soon include about 160 adults and 80 children, living as families, singles and couples. We range in age from infants to octogenarians. About a fifth of our residents are retired, and another fifth are stay-at-home parents. The remaining residents work in very diverse roles, including farmers, software engineers, nurses, teachers, writers, builders, musicians, legal and financial professionals, college professors and more. The village is also home to an organic CSA vegetable farm, an organic CSA/U-Pick berry farm, office spaces for entrepreneurs, a neighborhood root cellar, community gardens, and meadows, ponds and woodlands. Over 80% of the 175 acre site is planned to remain green space, including 55 acres in a conservation easement held by the Finger Lakes Land Trust.http://ecovillageithaca.org/115 Rachel Carson WayIthaca, NY 14850.",resistance,
Sirius Community,,42.4212,-72.424,,,,An educational non-profit and eco-village celebrating over 35 years of educating and role-modelling for planetary healing.http://www.siriuscommunity.org,resistance,
Gaviotas,,4.5682,-70.8985,,,,"Gaviotas is a village in Colombia, South America. For four decades, Gaviotans have struggled to build an oasis of imagination and sustainability in the remote, barren savannas of eastern Colombia, an area ravaged by political instability. They have planted millions of trees, thus regenerating an indigenous rainforest. They farm organically and use wind and solar power. Every family enjoys free housing, community meals, and schooling. There are no weapons, no police, no jail. There is no mayor.  http://www.friendsofgaviotas.org/",resistance,
Whole Village,,43.8608,-80.1068,,,,"We are a community with a commitment to sustainability and land stewardship seeking to live together in harmony with each other and with the natural habitat. Click here for our founding principles.Are you a forming community looking for land? Whole Village Eco-village is in a position to offer an opportunity to build an autonomous community home on our adjoining farm, nestled in the Caledon hills, close to Orangeville, Guelph and Brampton. We could share facilities such as a barn, pond and maple forest. http://www.wholevillage.org/",resistance,
Ecovillage du Clos du Doubs,,47.3255,7.0711,,,,"L’Ecovillage du Clos-du-Doubs est un réseau de sites dont les habitants mettent en pratique un mode de vie respectueux de la nature, de l’environnement et des valeurs humanistes. Son noyau est constitué par la Fondation des fermes communautaires libres, propriétaire des domaines d’Essertfallon et de Froidevaux, près de Soubey, ainsi que d’un alpage dans le Pays-d’Enhaut (VD). L’Ecovillage compte aussi deux autres antennes; l’une à Massesselin et l’autre à Saint-Ursanne. Comme tout projet pionnier, il est en évolution permanente. Les familles qui le composent exploitent les domaines selon les principes de l’agriculture biodynamique, vendent lesproduits de leurs élevages, jardins et vergers et offrent tout un éventail de prestations d’accueil: chambres d’hôtes et gîtes ruraux, ateliers et espaces communautaires, accueil socio-éducatif, centre de volontariat international,stages ou camps de sensibilisation à la nature, activités culturelles. http://www.ecodoubs.ch/ecovillage.htm.  ",resistance,
Ecovillaggio Torri Superiore,,43.8404,7.5509,,,,"The Torri Superiore Cultural Association was founded in 1989 with the aim of restoring and re-inhabiting the abandoned medieval village, of supporting the settlement of a resident community, and to aid with the creation of an ecovillage and cultural centre that could be opened to the public. — The Association now has about 30 members, both resident and non-resident, and follows guiding principles of sustainability, cooperation, and solidarity. The Association does not take any declared ideological or political stand, and adopts a non-religious cultural policy.http://www.torri-superiore.org",resistance,
Ecovilla Gaia,,-34.9986,-59.2809,,,,"Gaia Association is a non profit association, founded in December 1992. Its founding mission is the promotion of sustainable societies, mainly by creating human settlements based on the practice of Permaculture systems and methods. —  The supporting pillars of the Ecovillage follows these principles: coexistence, harmony, participation, democracy and tolerance. The Ecovillage aspires to be a center of integration with the bio-region in which it is settled. Each Ecovillage will be open to interchange with each other, so that we can help one another in different aspects, as food, service, construction, alternative energy, etc.   http://www.gaia.org.ar",resistance,
SomerVille Ecovillage,,-31.869,116.2884,,,,"Coothallie Rd, Chidlow WA 6556, Australie. The SomerVille Ecovillage offers an unique opportunity to experience a harmonious lifestyle that blends environmental sustainability with the advantages of a strong community and developed local enterprise. It’s a place where like-minded people can live in a vibrant village, where community flourishes and every person is supported and contributes in balance with a sustainable ecological ethic. SomerVille embraces what is known as a ‘triple bottom line’ – a strong focus on social, environmental and economic sustainability.http://somervilleecovillage.com.au/",resistance,
Ecovillage Currumbin,,-28.1976,153.4097,,,,"The Ecovillage at Currumbin is an international award winning sustainable community located in south-east Queensland, Australia. The 270 acre site is set the hinterland, 7 minutes from the beautiful Currumbin Beach on the Gold Coast.The community is the most awarded estate in Australia with over 33 accolades, including “The World’s Best Environmental Development” (FIABCI Prix D’Excellence Award 2008)..  http://theecovillage.com.au/",resistance,
Crystal Waters  EcoVillage,,-26.7887,152.7167,,,,"48/65 Kilcoy Ln, Conondale QLD 4552, Australie .  Crystal Waters is an environmentally and socially responsible rural subdivision, designed using permaculture principles. With a community of over 200 people living in the village, it is continually evolving, physically and socially. — The property covers 650 acres, of which 20% is made up of 83 residential and 2 lots for the Crystal Waters Community Co-operative (Co-Op) which provides facilities and services for the social and economic aspirations of the community. The remaining 80% is the best land and is owned in common. It can be licensed by residents for agriculture, forestry, recreation and habitat projects. — The Village Green is the social hub of the community, with plenty of open space for people to meet, talk and play together. Surrounding the Green are The Kitchen and The Deck, which are used regularly for markets and concerts, and a variety of privately owned businesses. They form part of the Village Centre – the area at the Entrance to Crystal Waters zoned for commerce, light industry, tourism and educational activities.http://crystalwaters.org.au/",resistance,
Dedetepe EcoFarm,,39.5755,26.6505,,,,"http://www.dedetepe.org/  Dedetepe Farm is an eco farm-camp mainly producing olive oil. We have been hosting volunteers for 8 years and since 2010 we have been functioning as a camp for eco minded travelers and providing the accommodation for the educational workshops held at the Camtepe Education Center (Bugday Org.). We are closely related to and work with the Bugday Organisation supporting ecological living. — All of the structures that we have created on the site have been ecologically constructed and our energy is sourced from sun and wind. We are a family friendly camp and our types of accommodations are log houses, yurts, tents and an open air sleeping platform. — The camp is set in the olive groves of the kaz dag region, next to a beautiful river and 3km from the sea",resistance,
Imece Evi EcoFarm,,38.7137,27.1634,,,,"İmece Evi,the Farm for Natural Life and Ecological Solutions.  İmeceevi eco farm is a base station for the İmece Eco Village attempt. at moment We have 5 acre land by the sea side in near Canakkale. the Eco farm enable us to ease living in our newly established (ongoing) villege.Principles and ValuesCollective Decisions, Collective Budget and Collective Food. In situations that relate to the past, present and future of our community, and when required or demanded, collective decisions are taken. Our non-profit economy is based on collectivity and accessible any time to the members for any piece of information including our economic mechanism. We usually dine together, which is one of the fields where we share the sense and pleasure of belonging.We're trying to create a self-sufficient economical process using natural farming, stockbreeding, and bartering whenever possible. For the rest of our needs, we have adopted a closed and independent economy via which we obtain things from a network of friends living in cities.In all our activities we adopt the ideal of living a natural and moderate life by minimizing the habits of the consumption society, by choosing natural and local products, by recycling in naturally-friendly ways, and by avoiding industrial products with packaging that contain hazardous chemicals. We determine our needs not according to our habits of consumption but in tandem with our conscious, ecological solutions. We find it important to have harmony with the local and traditional values.Nonviolence. It is essential to avoid imposition on others in any way, to intervene with oppressive and violent (physical, verbal and psychological) behaviour, and to show acceptance when critiqued in such cases. In case of a conflict, the way to deal with the problem lies in dialogue, agreement, effectiveness and finding a permanent solution.Solidarity. Living together in an eco-village depends on the voluntary colloboration and open communication of the participants. For this reason all members are expected to work as much as they can so as to contribute to common needs.küçükkuyu — http://ecra.se/37yfhttp://ecra.se/37y9",resistance,
La Comune di Bagnaia,,43.2931,11.2082,,,,"The commune of Bagnaia was founded in 1979. Its aim is to share human and economic resources and to experience group living based on the principles of reciprocal respect and comprehension,collaboration, equality. — All property is communally owned. All decisions are taken by consensus. Each member chooses hisher own job,which can be within the commune , in agriculture or in crafts, or outside,according to individual choices and competencies. — At present the group consists of about 20 people, half of whom work outside the commune,half on the farm. — The farm has been completely organic since 1990. It consists of 50 hectares of woods,which is is a source for our fuel, and 30 ha of cultivated land which includes vineyards, olive groves,cereal crops and vegetable gardens. We have cows, pigs and chickens, bees. Our produce is largely used for our own consumption, but we also sell our surplus to neighbours and friends. — The commune promotes and supports political, social and cultural activities as individuals and collectively,according to our ideals, interests and possibilities. — La Comune di Bagnaia, Localitá Ancaiano, 53018 Sovicille.  http://www.unpattotranoi.it/bagnaia.htm",resistance,
Urupia,,40.493,17.5441,,,,"« Jusqu’il y a une vingtaine d’années, c’était une exploitation agricole, une masseria, une ferme isolée au milieu d’une grande plaine couverte d’oliviers centenaires. Cette masseria a été reprise il y a une quinzaine d’années par un groupe mixte d’Italiens et d’Allemands à la recherche d’un autre mode de vie pour en faire un lieu autogéré. C’est un lieu basé sur trois règles essentielles :> pas de propriété individuelle ;  > les décisions sont prises au consensus ;  > ouverture aux visiteurs et partage de leur expérience. — Le projet est né en 1993 de la rencontre d’un groupe d’Allemands et d’anarchistes du Salento. Trois ans de réunions préalables pour définir le projet, la charte, les futures règles et pour trouver d’autres membres intéressés. Le projet prend le nom d’Urupia, synthèse de “Uru”, qui est le nom que l’on donne aux esprits de la nature dans les Pouilles, et de “utopia”.Pour éviter la propriété privée, le terrain et les bâtiments appartiennent à l’association Urupia, créée pour l’occasion, et dont sont membres les communardes. — Dans la recherche d’autonomie, d’économies et d’un mode de vie plus sain, la commune a pris plus ou moins volontairement une dimension écologique. La nourriture est essentiellement biologique puisque les légumes et fruits proviennent du potager, le pain et la farine sont produits sur place, ainsi que le vin et l’huile d’olive. Le reste est acheté en gros ce qui permet de réduire les coûts et donc d’acheter biologique. (...) » (Extrait de la revue Silence, juin 2008. Les Renseignements généreux. Le texte entier : http://ecra.se/37Ce) — Comunità di Urupia, contrada Petrosa/ C.da Cistonaro. 72021 Fermo posta Francavilla Fontana (BR) (Emplacement GoogleMap approximatif) — http://urupia.wordpress.com/",resistance,
Sieben Linden Ecovillage,,52.6893,11.1427,,,,"„Sieben Linden Ecovillage“ aims to establish a socially and environmentally progressive model settlement – both a village and a community. The settlement is planned as a living and working space for 300 people of all age groups, social als cultural backgrounds. The ecovillage wants to enable its inhabitants to live self-governed and, to some degree, self-sufficiently. We finance our lifes individually but share some costs, like for food or utilities. Our own organisations provide some jobs, but a good part of our members have to find paid work outside of the community. — In 1997, we have started to build the model settlement as an autonomous spatial unit, located on a 22 hectar plot outside of the village Poppau. Since then, the village has grown. We now have several big houses, each for several community members and all built with high ecologic standards. Our houses are being build with mostly local materials, many with straw bale insulation and mud plastering. Many of us still live in trailers, however. We run a thriving seminar center, a forest kindergarten, some mailorder businesses, a big garden. — As a community, we have a council system to enable all members to participate in decision making while trying to stay somewhat efficient in the process. We gather at least twice a year for periods of five days or more for „intensive times“ to reconnect and discuss the general path we are taking. Ecologic living is definitely a value we all share, but a sense of community is also very strong.We integrate new members through a process of getting to know each other and a trial period, which has to be preceded by participating in a two week seminar we call „community course“. Full members eventually buy about Euro 12,000 worth of shares when they join.    L'Ecovillage Sieben Linden est un projet communautaire tourné vers l'avenir. Avec actuellement 140 habitant(e)s, nous concrétisons des modes de vie durables depuis 1997 dans les secteurs de l'écologie, du social et de l'économie. Grâce à de multiples offres de formation et possibilités de séjour, nous transmettons nos expériences aux intéressés.http://www.siebenlinden.de/index.php?id=1&L=3      http://gensol.arte.tv/okodorf/",resistance,
Kommune Niederkaufungen,,51.2853,9.6021,,,,"Founded over 21 years ago, in December 1986, and situated in a complex of half-timbered farm buildings in the centre of the village of Niederkaufungen, just outside Kassel, we are Germany's largest non-religious, non-spiritual commune. — Our main principles and focuses are on sustainability and the attempt to be as ecological as possible, consensus decision making, left-wing politics, reduction of patriarchal and hierarchical structures, a completely socialised internal communal economy, and collective work. All buildings, land, motor-vehicles, and means of production are communally owned.  Communauté de Niederkaufungen, Kirchweg 3, D – 34260 Kaufungen.    http://www.kommune-niederkaufungen.de/francais/",resistance,
Lebensgut Cobstaedt,,50.924,10.8346,,,,"The community project ""LebensGut-Cobstädt"" was founded by some young people from Erfurt in early 2004. It is a small network of friends, projects and home-sharing communities who have a common basis here. There are now about 18 adults and 6 children living on five farmsteads close together. A cooperative communal life and economic system have been created on the farmsteads and the approx. 12 hectares of cultivated land. Various tasks and occupations have been generated in which we find self fulfilment and with which we operate together, sustainably and ecologically.  — An agricultural ecosystem has been created within the framework of self-sufficiency and experimental cultivation, A “genetic pool” has been built up for the conservation of over a thousand different types of fruit. Likewise there is a small seed bank with a rare range of old varieties of cereals and vegetables. We are building up a “living pharmacy” of herbs and medicinal plants. A tailoring workshop has been added recently. In 2008 we founded LebensGut-Cobstädt, a virtual interface and sphere of activity for a large circle of friends who partly live and work here. A network of friends and a project of living communitySo far we are 25 adults and 8 children on our 7 farms in Cobstädt.    http://www.lebensgut-cobstaedt.de/pages/en/who-we-are.php",resistance,
Tir Tairngire,,48.9447,-57.9821,,,,"Tir Tairngire: an Irish legend of a place that the magickal Faerie folk call heaven, environmental unity, freedom from conflict, and even illness. This is a legend; this is a dream; this is our ecovillage objective.The Tir Tairngire Project is a think-tank concept forum aimed at realizing an ecovillage in Newfoundland, Canada. The land has already been obtained and plans are in development. The think-tank is serving as the common meeting place of like minded persons to generate and perfect ideas that will be incorporated into the ecovillage when it is built. — We welcome all interest, all assistance, all best-practice ideas anyone has to offer. We are also looking forward to more people who would like to be part of the actual ecovillage. We are centering around a service = citizenship concept, so those seeking to live the talk are especially encouraged to join us.29 Wilson DriveCorner Brook, Newfoundland And Labrador, Canada.  http://www.ic.org/directory/tir-tairngire/      http://lorecaster.proboards.com/",resistance,
Unadilla Community Farm,,42.38,-75.341,,,,"We're a group of farmhands and craftspeople (and above all, friends!) who have come together to create a new kind of organic farming community in central New York State. We have all been involved for years in the organic farming movement, contributing as volunteers (most of us began our careers through the WWOOF network), and working as hired hands, farm managers and master builders. You can read more about our current members by clicking here. — After years of experience on organic farming projects around the world, we’re pooling our resources into a project of our own - an organic farm that’s cooperatively owned by a residential community of workers. — We're organized as an agricultural cooperative, which means our members share equally in the ownership and decision-making of the farm. For us, this distinction is fundamental to our vision of a sustainable community - we believe that every job merits equal dignity, no matter how small.http://unadillacommunityfarm.blogspot.fr/ — Unadilla Community Farm, Ideuma Creek Alpaca Farm321 Ideuma Rd, Unadilla, NY, États-Unis ‎",resistance,
ZAD de Roybon,,45.2356,5.2116,,,,"Zad commencée en décembre 2014 afin d'empêcher le déboisement d'une partie de la forêt des Chambarans, destinée à être transformée en center parc par Pierre et Vacances.                                         — Le blog de la ZAD: http://zadroybon.wordpress.com/ — Association PCSCP: http://www.pcscp.org/",resistance,
Permacultura Barcelona,,41.4021,2.1752,,,,Grassroots organization ruled by volunteers within the city of Barcelona. The main idea is to spread the word about the philosophy of permaculture.                                           More info: https://www.facebook.com/groups/pb.comunidad.eventos/                                   http://www.permacultura-bcn.org,resistance,
NyamNyam,,41.3953,2.1899,,,,Friendly couple of artistes organizing events around food issues! Have a look at their web: http://www.nyamnyam.net ,resistance,
EsBiosfera,,41.6397,2.3569,,,,"Escola d'Agricultura Ecològica, Ecologia Urbana i Restaurant a Cardedeu. Active association aiming a proposing toolds and ideas for a social/political/economical change! http://www.esbioesfera.cat",resistance,
ZAD du Keelbeek - Bruxelles,,50.8967,4.425,,,,"ZAD commencée en août 2014 contre la construction d'une maxi-prison à Bruxelles. — Le camp risque d'être expulsé fin avril - début mai, les occupants-es ont besoin de soutien! — http://haren.luttespaysannes.be/",resistance,
